[{"OBJECT_NAME":"STARLINK-1031","OBJECT_ID":"2019-074Z","EPOCH":"2026-03-10T00:00:02.999808","MEAN_MOTION":15.90865598,"ECCENTRICITY":0.00049057,"INCLINATION":53.038,"RA_OF_ASC_NODE":118.4605,"ARG_OF_PERICENTER":5.1796,"MEAN_ANOMALY":268.8734,"EPHEMERIS_TYPE":0,"CLASSIFICATION_TYPE":"U","NORAD_CAT_ID":44736,"ELEMENT_SET_NO":999,"REV_AT_EPOCH":595,"BSTAR":0.00079922791,"MEAN_MOTION_DOT":0.00253127,"MEAN_MOTION_DDOT":3.476233e-5},{"OBJECT_NAME":"COSMOS 2592","OBJECT_ID":"2025-182B","EPOCH":"2026-03-09T19:54:42.573024","MEAN_MOTION":15.96360125,"ECCENTRICITY":0.00088001,"INCLINATION":96.5859,"RA_OF_ASC_NODE":2.0195,"ARG_OF_PERICENTER":153.514,"MEAN_ANOMALY":206.659,"EPHEMERIS_TYPE":0,"CLASSIFICATION_TYPE":"U","NORAD_CAT_ID":65268,"ELEMENT_SET_NO":999,"REV_AT_EPOCH":3184,"BSTAR":1.5006985e-5,"MEAN_MOTION_DOT":5.658e-5,"MEAN_MOTION_DDOT":1.861987e-6}]
